     2.100          NAVIGATION                              RINEX VERSION / TYPE
fic2rin                                 11/17/2014 00:18:41 PGM / RUN BY / DATE
                                                            END OF HEADER
30 14 11 16  4  0  0.0 -.804825685918D-04 -.227373675443D-11  .000000000000D+00
     .112000000000D+03 -.126562500000D+02  .470483883257D-08  .222392759889D+01
    -.625848770142D-06  .102276750840D-02  .766851007938D-05  .515364091492D+04
     .144000000000D+05 -.931322574615D-08 -.161327048550D+01  .540167093277D-07
     .957513698232D+00  .232312500000D+03 -.307555583807D+01 -.817248327387D-08
    -.175721605224D-09  .100000000000D+01  .181900000000D+04  .000000000000D+00
     .240000000000D+01  .000000000000D+00  .325962901115D-08  .112000000000D+03
     .720600000000D+04  .400000000000D+01
32 14 11 16  4  0  0.0 -.292897224426D-03  .886757334229D-11  .000000000000D+00
     .890000000000D+02  .431875000000D+02  .462483550011D-08  .289725668603D+01
     .227056443691D-05  .114289252087D-01  .925548374653D-05  .515362375450D+04
     .144000000000D+05 -.201165676117D-06  .258240357881D+01  .745058059692D-08
     .947507755501D+00  .192468750000D+03 -.347226239367D-01 -.795604568695D-08
     .181436128972D-09  .100000000000D+01  .181900000000D+04  .000000000000D+00
     .340000000000D+01  .000000000000D+00 -.325962901115D-08  .890000000000D+02
     .720600000000D+04  .400000000000D+01
 1 14 11 16  3 59 28.0 -.120867043734D-04  .341060513165D-12  .000000000000D+00
     .200000000000D+01 -.404375000000D+02  .441482675240D-08  .293843752713D+01
    -.208988785744D-05  .367063633166D-02  .843405723572D-05  .515367527962D+04
     .143680000000D+05 -.204890966415D-07  .145749195665D+01 -.745058059692D-08
     .961060769867D+00  .217968750000D+03  .447725550046D+00 -.797104631179D-08
    -.118219210019D-09  .100000000000D+01  .181900000000D+04  .000000000000D+00
     .240000000000D+01  .000000000000D+00  .558793544769D-08  .200000000000D+01
     .762600000000D+04  .400000000000D+01
32 14 11 16  3 59 44.0 -.292894430459D-03  .886757334229D-11  .000000000000D+00
     .100000000000D+01  .431875000000D+02  .462447834237D-08  .289492293524D+01
     .227056443691D-05  .114289233461D-01  .925548374653D-05  .515362375450D+04
     .143840000000D+05 -.201165676117D-06  .258240369292D+01  .745058059692D-08
     .947507746724D+00  .192468750000D+03 -.347227175634D-01 -.795604568695D-08
     .181793286706D-09  .100000000000D+01  .181900000000D+04  .000000000000D+00
     .240000000000D+01  .000000000000D+00 -.325962901115D-08  .100000000000D+01
     .795600000000D+04  .400000000000D+01
25 14 11 16  3 59 44.0  .140485353768D-04 -.170530256582D-11  .000000000000D+00
     .700000000000D+01  .130000000000D+02  .412588614543D-08  .126221750699D+01
     .698491930962D-06  .377747463062D-02  .859051942825D-05  .515377111626D+04
     .143840000000D+05  .372529029846D-08 -.643994669900D+00  .856816768646D-07
     .977525340848D+00  .220718750000D+03  .698003868903D+00 -.796926052312D-08
     .146791828755D-09  .100000000000D+01  .181900000000D+04  .000000000000D+00
     .240000000000D+01  .000000000000D+00  .512227416039D-08  .700000000000D+01
     .101460000000D+05  .400000000000D+01
11 14 11 16  3 59 44.0 -.536692328751D-03 -.284217094304D-11  .000000000000D+00
     .100000000000D+01 -.549375000000D+02  .602989402643D-08  .252370935248D+01
    -.290758907795D-05  .156412108336D-01  .593066215515D-05  .515371779442D+04
     .143840000000D+05  .149011611938D-06  .112069689958D+01 -.119209289551D-06
     .891379706914D+00  .224312500000D+03  .135913344225D+01 -.860142971264D-08
    -.149649090628D-09  .100000000000D+01  .181900000000D+04  .000000000000D+00
     .240000000000D+01  .000000000000D+00 -.121071934700D-07  .100000000000D+01
     .109560000000D+05  .400000000000D+01
17 14 11 16  3 59 44.0 -.137843191624D-03 -.250111042988D-11  .000000000000D+00
     .100000000000D+01 -.226875000000D+02  .459269130403D-08 -.104478214374D+01
    -.109709799290D-05  .970196898561D-02  .547990202904D-05  .515366773605D+04
     .143840000000D+05  .782310962677D-07  .447931998509D+00  .214204192162D-06
     .970506308180D+00  .280250000000D+03 -.208356428989D+01 -.823284293095D-08
    -.235724104569D-10  .100000000000D+01  .181900000000D+04  .000000000000D+00
     .240000000000D+01  .000000000000D+00 -.107102096081D-07  .100000000000D+01
     .139560000000D+05  .400000000000D+01
11 14 11 16  5 59 44.0 -.536712352186D-03 -.284217094304D-11  .000000000000D+00
     .200000000000D+01 -.586875000000D+02  .608203905563D-08 -.270930273402D+01
    -.298023223877D-05  .156419440173D-01  .576116144657D-05  .515371643448D+04
     .215840000000D+05  .186264514923D-06  .112063463633D+01 -.335276126862D-07
     .891378750166D+00  .228343750000D+03  .135912596821D+01 -.861143012920D-08
    -.910752222200D-10  .100000000000D+01  .181900000000D+04  .000000000000D+00
     .240000000000D+01  .000000000000D+00 -.121071934700D-07  .200000000000D+01
     .144060000000D+05  .400000000000D+01
17 14 11 16  5 59 44.0 -.137860886753D-03 -.250111042988D-11  .000000000000D+00
     .200000000000D+01 -.145312500000D+02  .461269213714D-08  .545469486708D-02
    -.705942511559D-06  .970305921510D-02  .537559390068D-05  .515367002678D+04
     .215840000000D+05 -.391155481339D-07  .447871872575D+00  .100582838058D-06
     .970505782993D+00  .282968750000D+03 -.208361631126D+01 -.835106214097D-08
     .107147320259D-11  .100000000000D+01  .181900000000D+04  .000000000000D+00
     .240000000000D+01  .000000000000D+00 -.107102096081D-07  .200000000000D+01
     .144060000000D+05  .400000000000D+01
25 14 11 16  5 59 44.0  .140359625220D-04 -.170530256582D-11  .000000000000D+00
     .100000000000D+02  .233125000000D+02  .410588531232D-08  .231270797316D+01
     .117346644402D-05  .377763039432D-02  .862404704094D-05  .515376847458D+04
     .215840000000D+05 -.447034835815D-07 -.644052171358D+00 -.689178705215D-07
     .977527197291D+00  .220281250000D+03  .697633213738D+00 -.783854079240D-08
     .226080845746D-09  .100000000000D+01  .181900000000D+04  .000000000000D+00
     .240000000000D+01  .000000000000D+00  .512227416039D-08  .100000000000D+02
     .144060000000D+05  .400000000000D+01
32 14 11 16  5 59 44.0 -.292830169201D-03  .886757334229D-11  .000000000000D+00
     .500000000000D+01  .403437500000D+02  .466483716634D-08 -.233806986122D+01
     .206008553505D-05  .114297858672D-01  .968389213085D-05  .515362209511D+04
     .215840000000D+05 -.191852450371D-06  .258234595739D+01 -.162050127983D-06
     .947508830746D+00  .186687500000D+03 -.347022835237D-01 -.804176354316D-08
     .230723896291D-09  .100000000000D+01  .181900000000D+04  .000000000000D+00
     .240000000000D+01  .000000000000D+00 -.325962901115D-08  .500000000000D+01
     .144060000000D+05  .400000000000D+01
 1 14 11 16  6  0  0.0 -.120839104056D-04  .341060513165D-12  .000000000000D+00
     .110000000000D+02 -.514375000000D+02  .446232873105D-08 -.229005323256D+01
    -.260956585407D-05  .367205543444D-02  .839866697788D-05  .515367242241D+04
     .216000000000D+05 -.502914190292D-07  .145743444057D+01 -.558793544769D-08
     .961059921375D+00  .218875000000D+03  .447878542019D+00 -.795747431789D-08
    -.135362781260D-09  .100000000000D+01  .181900000000D+04  .000000000000D+00
     .240000000000D+01  .000000000000D+00  .558793544769D-08  .110000000000D+02
     .144060000000D+05  .400000000000D+01
 2 14 11 16  6  0  0.0  .530367251486D-03  .216004991671D-11  .000000000000D+00
     .390000000000D+02 -.385625000000D+02  .499056501992D-08 -.156826012716D+01
    -.205449759960D-05  .139168465976D-01  .806525349617D-05  .515371032143D+04
     .216000000000D+05  .307336449623D-06  .142404601547D+01 -.154599547386D-06
     .939640029927D+00  .212343750000D+03 -.236899346538D+01 -.809426573009D-08
    -.133219834855D-09  .100000000000D+01  .181900000000D+04  .000000000000D+00
     .240000000000D+01  .000000000000D+00 -.204890966415D-07  .390000000000D+02
     .144060000000D+05  .400000000000D+01
 4 14 11 16  6  0  0.0 -.309338793159D-05 -.682121026330D-12  .000000000000D+00
     .460000000000D+02 -.550312500000D+02  .492591947003D-08 -.251395874308D+01
    -.278465449810D-05  .112767663086D-01  .808574259281D-05  .515199504662D+04
     .216000000000D+05  .745058059692D-07  .143959487288D+01 -.819563865662D-07
     .938655600168D+00  .210718750000D+03  .109477364158D+01 -.808247952486D-08
    -.120362156424D-09  .100000000000D+01  .181900000000D+04  .000000000000D+00
     .240000000000D+01  .000000000000D+00 -.651925802231D-08  .460000000000D+02
     .144060000000D+05  .400000000000D+01
 5 14 11 16  6  0  0.0 -.317447818816D-03  .443378667114D-11  .000000000000D+00
     .750000000000D+02  .436250000000D+02  .471126767178D-08  .761177885406D+00
     .238046050072D-05  .398973224219D-02  .913441181183D-05  .515372158241D+04
     .216000000000D+05 -.335276126862D-07  .249352219152D+01  .134110450745D-06
     .946981660902D+00  .194812500000D+03  .391463800987D+00 -.812176687562D-08
     .137505727665D-09  .100000000000D+01  .181900000000D+04  .000000000000D+00
     .240000000000D+01  .000000000000D+00 -.107102096081D-07  .750000000000D+02
     .144060000000D+05  .400000000000D+01
 6 14 11 16  6  0  0.0  .111376866698D-04  .534328137292D-11  .000000000000D+00
     .880000000000D+02 -.426562500000D+02  .454233206351D-08  .750767447289D+00
    -.228360295296D-05  .584676628932D-03  .852532684803D-05  .515363943863D+04
     .216000000000D+05  .484287738800D-07  .144888221709D+01  .242143869400D-07
     .960971951722D+00  .217812500000D+03  .218169148329D+01 -.804569227824D-08
    -.217509060125D-09  .100000000000D+01  .181900000000D+04  .000000000000D+00
     .240000000000D+01  .000000000000D+00  .465661287308D-08  .880000000000D+02
     .144060000000D+05  .400000000000D+01
